[{"OBJECT_NAME":"STARLINK-30701","OBJECT_ID":"2023-148R","EPOCH":"2026-03-09T05:54:16.501248","MEAN_MOTION":15.30193645,"ECCENTRICITY":9.674e-5,"INCLINATION":53.1629,"RA_OF_ASC_NODE":26.3782,"ARG_OF_PERICENTER":83.9632,"MEAN_ANOMALY":276.1479,"EPHEMERIS_TYPE":0,"CLASSIFICATION_TYPE":"U","NORAD_CAT_ID":57950,"ELEMENT_SET_NO":999,"REV_AT_EPOCH":13835,"BSTAR":-8.976134e-6,"MEAN_MOTION_DOT":-6.25e-6,"MEAN_MOTION_DDOT":0},{"OBJECT_NAME":"KUIPER-00177","OBJECT_ID":"2026-030C","EPOCH":"2026-03-09T22:40:13.687104","MEAN_MOTION":15.35467467,"ECCENTRICITY":0.00021592,"INCLINATION":51.8837,"RA_OF_ASC_NODE":217.7875,"ARG_OF_PERICENTER":172.5497,"MEAN_ANOMALY":187.5522,"EPHEMERIS_TYPE":0,"CLASSIFICATION_TYPE":"U","NORAD_CAT_ID":67766,"ELEMENT_SET_NO":999,"REV_AT_EPOCH":513,"BSTAR":-0.015747205,"MEAN_MOTION_DOT":-0.00515419,"MEAN_MOTION_DDOT":0}]
